[
    {
        "CCSDS_OMM_VERS": "3.0",
        "COMMENT": "GENERATED VIA SPACE-TRACK.ORG API",
        "CREATION_DATE": "2025-04-14T03:05:54",
        "ORIGINATOR": "18 SPCS",
        "OBJECT_NAME": "COSMOS 2500 (GLONASS)",
        "OBJECT_ID": "2014-032A",
        "CENTER_NAME": "EARTH",
        "REF_FRAME": "TEME",
        "TIME_SYSTEM": "UTC",
        "MEAN_ELEMENT_THEORY": "SGP4",
        "EPOCH": "2025-04-12T17:36:00.507744",
        "MEAN_MOTION": "2.13106109",
        "ECCENTRICITY": "0.00049000",
        "INCLINATION": "65.4730",
        "RA_OF_ASC_NODE": "328.3116",
        "ARG_OF_PERICENTER": "190.6934",
        "MEAN_ANOMALY": "169.3531",
        "EPHEMERIS_TYPE": "0",
        "CLASSIFICATION_TYPE": "U",
        "NORAD_CAT_ID": "40001",
        "ELEMENT_SET_NO": "999",
        "REV_AT_EPOCH": "8428",
        "BSTAR": "0.00000000000000",
        "MEAN_MOTION_DOT": "-0.00000047",
        "MEAN_MOTION_DDOT": "0.0000000000000",
        "SEMIMAJOR_AXIS": "25507.697",
        "PERIOD": "675.720",
        "APOAPSIS": "19142.060",
        "PERIAPSIS": "19117.063",
        "OBJECT_TYPE": "PAYLOAD",
        "RCS_SIZE": "LARGE",
        "COUNTRY_CODE": "CIS",
        "LAUNCH_DATE": "2014-06-14",
        "SITE": "PKMTR",
        "DECAY_DATE": null,
        "FILE": "4701263",
        "GP_ID": "285536872",
        "TLE_LINE0": "0 COSMOS 2500 (GLONASS)",
        "TLE_LINE1": "1 40001U 14032A   25102.73333921 -.00000047  00000-0  00000-0 0  9998",
        "TLE_LINE2": "2 40001  65.4730 328.3116 0004900 190.6934 169.3531  2.13106109 84284"
    }
]